{"type": "FeatureCollection", "features": [ {"type": "Feature", "properties": {"norad_id": 66870, "name": "STARLINK-36114", "group": "last-30-days", "lat": -35.88257030195951, "lon": -64.37109689608198, "alt_km": 368.1386043675984, "timestamp": "2025-12-22T04:03:37.888474+00:00", "meta": {"OBJECT_NAME": "STARLINK-36114", "OBJECT_ID": "2025-281Y", "EPOCH": "2025-12-21T20:00:01.999008", "MEAN_MOTION": 15.68972335, "ECCENTRICITY": 0.0001359, "INCLINATION": 43.0006, "RA_OF_ASC_NODE": 66.7219, "ARG_OF_PERICENTER": 285.1658, "MEAN_ANOMALY": 215.7735, "EPHEMERIS_TYPE": 0, "CLASSIFICATION_TYPE": "U", "NORAD_CAT_ID": 66870, "ELEMENT_SET_NO": 999, "REV_AT_EPOCH": 275, "BSTAR": -0.018489, "MEAN_MOTION_DOT": -0.01941625, "MEAN_MOTION_DDOT": 0}, "tle": {"line1": "1 66870U 25281Y   25355.83335647 -.01941625  00000+0 -18489-1 0  9994", "line2": "2 66870  43.0006  66.7219 0001359 285.1658 215.7735 15.68972335  2759"}}, "geometry": {"type": "Point", "coordinates": [-64.37109689608198, -35.88257030195951]}}, {"type": "Feature", "properties": {"norad_id": 66871, "name": "STARLINK-36095", "group": "last-30-days", "lat": -36.68630870115492, "lon": -62.21972937708983, "alt_km": 368.1308648829199, "timestamp": "2025-12-22T04:03:37.888505+00:00", "meta": {"OBJECT_NAME": "STARLINK-36095", "OBJECT_ID": "2025-281Z", "EPOCH": "2025-12-21T20:00:01.999008", "MEAN_MOTION": 15.68980538, "ECCENTRICITY": 0.0001243, "INCLINATION": 43.0006, "RA_OF_ASC_NODE": 66.7169, "ARG_OF_PERICENTER": 281.3416, "MEAN_ANOMALY": 221.5047, "EPHEMERIS_TYPE": 0, "CLASSIFICATION_TYPE": "U", "NORAD_CAT_ID": 66871, "ELEMENT_SET_NO": 999, "REV_AT_EPOCH": 288, "BSTAR": -0.018521, "MEAN_MOTION_DOT": -0.01945171, "MEAN_MOTION_DDOT": 0}, "tle": {"line1": "1 66871U 25281Z   25355.83335647 -.01945171  00000+0 -18521-1 0  9992", "line2": "2 66871  43.0006  66.7169 0001243 281.3416 221.5047 15.68980538  2885"}}, "geometry": {"type": "Point", "coordinates": [-62.21972937708983, -36.68630870115492]}}, {"type": "Feature", "properties": {"norad_id": 66872, "name": "STARLINK-36082", "group": "last-30-days", "lat": -37.45133101802606, "lon": -60.02035148214621, "alt_km": 368.19873630970324, "timestamp": "2025-12-22T04:03:37.888517+00:00", "meta": {"OBJECT_NAME": "STARLINK-36082", "OBJECT_ID": "2025-281AA", "EPOCH": "2025-12-21T20:00:01.999008", "MEAN_MOTION": 15.68971393, "ECCENTRICITY": 0.0001189, "INCLINATION": 43.0003, "RA_OF_ASC_NODE": 66.7117, "ARG_OF_PERICENTER": 282.0566, "MEAN_ANOMALY": 222.7187, "EPHEMERIS_TYPE": 0, "CLASSIFICATION_TYPE": "U", "NORAD_CAT_ID": 66872, "ELEMENT_SET_NO": 999, "REV_AT_EPOCH": 275, "BSTAR": -0.018481, "MEAN_MOTION_DOT": -0.01940759, "MEAN_MOTION_DDOT": 0}, "tle": {"line1": "1 66872U 25281AA  25355.83335647 -.01940759  00000+0 -18481-1 0  9995", "line2": "2 66872  43.0003  66.7117 0001189 282.0566 222.7187 15.68971393  2752"}}, "geometry": {"type": "Point", "coordinates": [-60.02035148214621, -37.45133101802606]}}, {"type": "Feature", "properties": {"norad_id": 66873, "name": "STARLINK-36128", "group": "last-30-days", "lat": -39.48505272407553, "lon": -53.174543257821455, "alt_km": 368.2554491421033, "timestamp": "2025-12-22T04:03:37.888526+00:00", "meta": {"OBJECT_NAME": "STARLINK-36128", "OBJECT_ID": "2025-281AB", "EPOCH": "2025-12-21T20:00:01.999008", "MEAN_MOTION": 15.68973158, "ECCENTRICITY": 0.0001175, "INCLINATION": 43.0007, "RA_OF_ASC_NODE": 66.6967, "ARG_OF_PERICENTER": 283.8317, "MEAN_ANOMALY": 226.6912, "EPHEMERIS_TYPE": 0, "CLASSIFICATION_TYPE": "U", "NORAD_CAT_ID": 66873, "ELEMENT_SET_NO": 999, "REV_AT_EPOCH": 288, "BSTAR": -0.018489, "MEAN_MOTION_DOT": -0.01941586, "MEAN_MOTION_DDOT": 0}, "tle": {"line1": "1 66873U 25281AB  25355.83335647 -.01941586  00000+0 -18489-1 0  9993", "line2": "2 66873  43.0007  66.6967 0001175 283.8317 226.6912 15.68973158  2881"}}, "geometry": {"type": "Point", "coordinates": [-53.174543257821455, -39.48505272407553]}}, {"type": "Feature", "properties": {"norad_id": 66874, "name": "STARLINK-36129", "group": "last-30-days", "lat": -38.172972612530344, "lon": -57.78321775244056, "alt_km": 368.22982142073215, "timestamp": "2025-12-22T04:03:37.888536+00:00", "meta": {"OBJECT_NAME": "STARLINK-36129", "OBJECT_ID": "2025-281AC", "EPOCH": "2025-12-21T20:00:01.999008", "MEAN_MOTION": 15.6897397, "ECCENTRICITY": 0.0001194, "INCLINATION": 43.0005, "RA_OF_ASC_NODE": 66.7067, "ARG_OF_PERICENTER": 283.9197, "MEAN_ANOMALY": 222.7688, "EPHEMERIS_TYPE": 0, "CLASSIFICATION_TYPE": "U", "NORAD_CAT_ID": 66874, "ELEMENT_SET_NO": 999, "REV_AT_EPOCH": 288, "BSTAR": -0.018497, "MEAN_MOTION_DOT": -0.0194238, "MEAN_MOTION_DDOT": 0}, "tle": {"line1": "1 66874U 25281AC  25355.83335647 -.01942380  00000+0 -18497-1 0  9996", "line2": "2 66874  43.0005  66.7067 0001194 283.9197 222.7688 15.68973970  2889"}}, "geometry": {"type": "Point", "coordinates": [-57.78321775244056, -38.172972612530344]}}, {"type": "Feature", "properties": {"norad_id": 66875, "name": "STARLINK-36053", "group": "last-30-days", "lat": -40.072239357892144, "lon": -50.802404244541094, "alt_km": 368.26334467924244, "timestamp": "2025-12-22T04:03:37.888564+00:00", "meta": {"OBJECT_NAME": "STARLINK-36053", "OBJECT_ID": "2025-281AD", "EPOCH": "2025-12-21T20:00:01.999008", "MEAN_MOTION": 15.68978292, "ECCENTRICITY": 0.0001174, "INCLINATION": 43.0007, "RA_OF_ASC_NODE": 66.6913, "ARG_OF_PERICENTER": 283.0606, "MEAN_ANOMALY": 229.3834, "EPHEMERIS_TYPE": 0, "CLASSIFICATION_TYPE": "U", "NORAD_CAT_ID": 66875, "ELEMENT_SET_NO": 999, "REV_AT_EPOCH": 288, "BSTAR": -0.018614, "MEAN_MOTION_DOT": -0.01953575, "MEAN_MOTION_DDOT": 0}, "tle": {"line1": "1 66875U 25281AD  25355.83335647 -.01953575  00000+0 -18614-1 0  9996", "line2": "2 66875  43.0007  66.6913 0001174 283.0606 229.3834 15.68978292  2883"}}, "geometry": {"type": "Point", "coordinates": [-50.802404244541094, -40.072239357892144]}}, {"type": "Feature", "properties": {"norad_id": 66876, "name": "STARLINK-35702", "group": "last-30-days", "lat": -38.851799766295784, "lon": -55.49945011508152, "alt_km": 368.2365158901357, "timestamp": "2025-12-22T04:03:37.888574+00:00", "meta": {"OBJECT_NAME": "STARLINK-35702", "OBJECT_ID": "2025-281AE", "EPOCH": "2025-12-21T20:00:01.999008", "MEAN_MOTION": 15.68970321, "ECCENTRICITY": 0.0001216, "INCLINATION": 43.0005, "RA_OF_ASC_NODE": 66.7019, "ARG_OF_PERICENTER": 284.3186, "MEAN_ANOMALY": 224.2904, "EPHEMERIS_TYPE": 0, "CLASSIFICATION_TYPE": "U", "NORAD_CAT_ID": 66876, "ELEMENT_SET_NO": 999, "REV_AT_EPOCH": 288, "BSTAR": -0.018466, "MEAN_MOTION_DOT": -0.01939274, "MEAN_MOTION_DDOT": 0}, "tle": {"line1": "1 66876U 25281AE  25355.83335647 -.01939274  00000+0 -18466-1 0  9992", "line2": "2 66876  43.0005  66.7019 0001216 284.3186 224.2904 15.68970321  2881"}}, "geometry": {"type": "Point", "coordinates": [-55.49945011508152, -38.851799766295784]}}, {"type": "Feature", "properties": {"norad_id": 66877, "name": "ZQ-3 R/B", "group": "last-30-days", "lat": 19.394592052210818, "lon": -172.20272541065648, "alt_km": 514.0205275341859, "timestamp": "2025-12-22T04:03:37.888584+00:00", "meta": {"OBJECT_NAME": "ZQ-3 R/B", "OBJECT_ID": "2025-282A", "EPOCH": "2025-12-21T19:10:23.166336", "MEAN_MOTION": 14.77749294, "ECCENTRICITY": 0.0703568, "INCLINATION": 56.949, "RA_OF_ASC_NODE": 22.5062, "ARG_OF_PERICENTER": 235.887, "MEAN_ANOMALY": 117.3486, "EPHEMERIS_TYPE": 0, "CLASSIFICATION_TYPE": "U", "NORAD_CAT_ID": 66877, "ELEMENT_SET_NO": 999, "REV_AT_EPOCH": 272, "BSTAR": 0.00017797, "MEAN_MOTION_DOT": 0.01007007, "MEAN_MOTION_DDOT": 7.8004e-06}, "tle": {"line1": "1 66877U 25282A   25355.79887924  .01007007  78004-5  17797-3 0  9990", "line2": "2 66877  56.9490  22.5062 0703568 235.8870 117.3486 14.77749294  2723"}}, "geometry": {"type": "Point", "coordinates": [-172.20272541065648, 19.394592052210818]}}, {"type": "Feature", "properties": {"norad_id": 66878, "name": "STARLINK-35866", "group": "last-30-days", "lat": -40.178083996688784, "lon": -12.66088367045749, "alt_km": 351.97567091324527, "timestamp": "2025-12-22T04:03:37.888596+00:00", "meta": {"OBJECT_NAME": "STARLINK-35866", "OBJECT_ID": "2025-283A", "EPOCH": "2025-12-21T20:00:01.999008", "MEAN_MOTION": 15.7420544, "ECCENTRICITY": 0.0001001, "INCLINATION": 53.1577, "RA_OF_ASC_NODE": 28.288, "ARG_OF_PERICENTER": 95.1751, "MEAN_ANOMALY": 106.8641, "EPHEMERIS_TYPE": 0, "CLASSIFICATION_TYPE": "U", "NORAD_CAT_ID": 66878, "ELEMENT_SET_NO": 999, "REV_AT_EPOCH": 389, "BSTAR": -0.00042849, "MEAN_MOTION_DOT": -0.00062959, "MEAN_MOTION_DDOT": 0}, "tle": {"line1": "1 66878U 25283A   25355.83335647 -.00062959  00000+0 -42849-3 0  9996", "line2": "2 66878  53.1577  28.2880 0001001  95.1751 106.8641 15.74205440  3891"}}, "geometry": {"type": "Point", "coordinates": [-12.66088367045749, -40.178083996688784]}}, {"type": "Feature", "properties": {"norad_id": 66879, "name": "STARLINK-35749", "group": "last-30-days", "lat": -37.74760799602238, "lon": -8.873520954014442, "alt_km": 351.75253661704664, "timestamp": "2025-12-22T04:03:37.888607+00:00", "meta": {"OBJECT_NAME": "STARLINK-35749", "OBJECT_ID": "2025-283B", "EPOCH": "2025-12-21T20:00:01.999008", "MEAN_MOTION": 15.74199772, "ECCENTRICITY": 0.0001006, "INCLINATION": 53.1576, "RA_OF_ASC_NODE": 28.2797, "ARG_OF_PERICENTER": 83.4058, "MEAN_ANOMALY": 122.4668, "EPHEMERIS_TYPE": 0, "CLASSIFICATION_TYPE": "U", "NORAD_CAT_ID": 66879, "ELEMENT_SET_NO": 999, "REV_AT_EPOCH": 389, "BSTAR": -0.0003604, "MEAN_MOTION_DOT": -0.00053103, "MEAN_MOTION_DDOT": 0}, "tle": {"line1": "1 66879U 25283B   25355.83335647 -.00053103  00000+0 -36040-3 0  9994", "line2": "2 66879  53.1576  28.2797 0001006  83.4058 122.4668 15.74199772  3896"}}, "geometry": {"type": "Point", "coordinates": [-8.873520954014442, -37.74760799602238]}}]}